[{"OBJECT_NAME":"CUBEBEL 2 (EU11S)","OBJECT_ID":"2023-091K","EPOCH":"2026-03-09T21:40:29.186112","MEAN_MOTION":15.26706784,"ECCENTRICITY":0.00118653,"INCLINATION":97.517,"RA_OF_ASC_NODE":131.3579,"ARG_OF_PERICENTER":105.889,"MEAN_ANOMALY":254.3657,"EPHEMERIS_TYPE":0,"CLASSIFICATION_TYPE":"U","NORAD_CAT_ID":57175,"ELEMENT_SET_NO":999,"REV_AT_EPOCH":14914,"BSTAR":0.00056688644,"MEAN_MOTION_DOT":0.00014859,"MEAN_MOTION_DDOT":0},{"OBJECT_NAME":"STARLINK-33535","OBJECT_ID":"2025-065U","EPOCH":"2026-03-09T12:22:15.428640","MEAN_MOTION":15.27607254,"ECCENTRICITY":0.00012814,"INCLINATION":43.0001,"RA_OF_ASC_NODE":107.9625,"ARG_OF_PERICENTER":289.7459,"MEAN_ANOMALY":70.3254,"EPHEMERIS_TYPE":0,"CLASSIFICATION_TYPE":"U","NORAD_CAT_ID":63417,"ELEMENT_SET_NO":999,"REV_AT_EPOCH":5281,"BSTAR":0.00075277189,"MEAN_MOTION_DOT":0.00020527,"MEAN_MOTION_DDOT":0}]
